{
  "norad_id": 61881,
  "name": "STARLINK-11329 [DTC]",
  "history": [
    {
      "epoch": "2026-03-28T20:21:04.677984Z",
      "apogee_km": 360.10126690638117,
      "perigee_km": 359.34137124515655,
      "latitude_deg": 3.5336878162511596e-05,
      "longitude_deg": 130.28580065165252,
      "height_km": 360.4651733293565,
      "semi_major_axis_km": 6737.858319075769,
      "eccentricity": 5.639e-05,
      "inclination_deg": 53.1584,
      "raan_deg": 261.8178,
      "arg_perigee_deg": 63.3526,
      "mean_anomaly_deg": 296.755,
      "mean_motion_rev_day": 15.69711898
    }
  ]
}